KINEIS-2D               
1 62930U 25028C   26201.14055496  .00000739  00000+0  11522-3 0  9994
2 62930  97.9269 252.9505 0004798  98.9110 261.2643 14.75777173 77577
KINEIS-2E               
1 62931U 25028D   26201.89339753  .00000848  00000+0  12717-3 0  9996
2 62931  97.8937 252.8075 0002078  90.0245 270.1203 14.77096889 77752
KINEIS-2A               
1 62932U 25028E   26201.71042547  .00000667  00000+0  11072-3 0  9992
2 62932  98.1283 257.1494 0005813  70.5719 289.6117 14.73458569 77542
KINEIS-2B               
1 62934U 25028G   26201.68781364  .00000635  00000+0  10538-3 0  9998
2 62934  97.9651 253.9401 0004606  61.1589 299.0081 14.73458804 77594
KINEIS-4E               
1 63300U 25056A   26201.89037744  .00000919  00000+0  15308-3 0  9991
2 63300  97.9073 324.8569 0002834  76.5597 283.5927 14.72312949 72087
KINEIS-4C               
1 63301U 25056B   26201.90267446  .00000956  00000+0  15883-3 0  9997
2 63301  97.9126 325.1218 0003237 191.8585 168.2547 14.72335051 72095
KINEIS-4D               
1 63302U 25056C   26201.90603596  .00000962  00000+0  16020-3 0  9999
2 63302  97.9048 325.0923 0001931 193.0633 167.0525 14.72213464 72094
KINEIS-4A               
1 63303U 25056D   26201.94129990  .00000935  00000+0  15556-3 0  9998
2 63303  97.9142 325.0847 0002449 142.3558 217.7821 14.72294087 72095
KINEIS-4B               
1 63304U 25056E   26201.85597100  .00000290  00000+0  53609-4 0  9997
2 63304  97.9154 325.0606 0005824 175.4049 184.7213 14.72281092 72072
