{"fetched_at":"2026-07-21T07:06:59.938Z","source":"https://celestrak.org/NORAD/elements/gp.php?NAME=KINEIS&FORMAT=JSON","constellation":"kineis","records":[{"OBJECT_NAME":"KINEIS-2D","OBJECT_ID":"2025-028C","EPOCH":"2026-07-20T03:22:23.948544","CLASSIFICATION_TYPE":"U","MEAN_MOTION":14.75777173,"ECCENTRICITY":0.00047986,"INCLINATION":97.9269,"RA_OF_ASC_NODE":252.9505,"ARG_OF_PERICENTER":98.911,"MEAN_ANOMALY":261.2643,"EPHEMERIS_TYPE":0,"NORAD_CAT_ID":62930,"ELEMENT_SET_NO":999,"REV_AT_EPOCH":7757,"BSTAR":0.00011522212,"MEAN_MOTION_DOT":0.00000739,"MEAN_MOTION_DDOT":0},{"OBJECT_NAME":"KINEIS-2E","OBJECT_ID":"2025-028D","EPOCH":"2026-07-20T21:26:29.546592","CLASSIFICATION_TYPE":"U","MEAN_MOTION":14.77096889,"ECCENTRICITY":0.00020782,"INCLINATION":97.8937,"RA_OF_ASC_NODE":252.8075,"ARG_OF_PERICENTER":90.0245,"MEAN_ANOMALY":270.1203,"EPHEMERIS_TYPE":0,"NORAD_CAT_ID":62931,"ELEMENT_SET_NO":999,"REV_AT_EPOCH":7775,"BSTAR":0.00012716732,"MEAN_MOTION_DOT":0.00000848,"MEAN_MOTION_DDOT":0},{"OBJECT_NAME":"KINEIS-2A","OBJECT_ID":"2025-028E","EPOCH":"2026-07-20T17:03:00.760608","CLASSIFICATION_TYPE":"U","MEAN_MOTION":14.73458569,"ECCENTRICITY":0.00058137,"INCLINATION":98.1283,"RA_OF_ASC_NODE":257.1494,"ARG_OF_PERICENTER":70.5719,"MEAN_ANOMALY":289.6117,"EPHEMERIS_TYPE":0,"NORAD_CAT_ID":62932,"ELEMENT_SET_NO":999,"REV_AT_EPOCH":7754,"BSTAR":0.00011072436,"MEAN_MOTION_DOT":0.00000667,"MEAN_MOTION_DDOT":0},{"OBJECT_NAME":"KINEIS-2B","OBJECT_ID":"2025-028G","EPOCH":"2026-07-20T16:30:27.098496","CLASSIFICATION_TYPE":"U","MEAN_MOTION":14.73458804,"ECCENTRICITY":0.0004606,"INCLINATION":97.9651,"RA_OF_ASC_NODE":253.9401,"ARG_OF_PERICENTER":61.1589,"MEAN_ANOMALY":299.0081,"EPHEMERIS_TYPE":0,"NORAD_CAT_ID":62934,"ELEMENT_SET_NO":999,"REV_AT_EPOCH":7759,"BSTAR":0.00010537582,"MEAN_MOTION_DOT":0.00000635,"MEAN_MOTION_DDOT":0},{"OBJECT_NAME":"KINEIS-4E","OBJECT_ID":"2025-056A","EPOCH":"2026-07-20T21:22:08.610816","CLASSIFICATION_TYPE":"U","MEAN_MOTION":14.72312949,"ECCENTRICITY":0.00028346,"INCLINATION":97.9073,"RA_OF_ASC_NODE":324.8569,"ARG_OF_PERICENTER":76.5597,"MEAN_ANOMALY":283.5927,"EPHEMERIS_TYPE":0,"NORAD_CAT_ID":63300,"ELEMENT_SET_NO":999,"REV_AT_EPOCH":7208,"BSTAR":0.00015308046,"MEAN_MOTION_DOT":0.00000919,"MEAN_MOTION_DDOT":0},{"OBJECT_NAME":"KINEIS-4C","OBJECT_ID":"2025-056B","EPOCH":"2026-07-20T21:39:51.073344","CLASSIFICATION_TYPE":"U","MEAN_MOTION":14.72335051,"ECCENTRICITY":0.00032379,"INCLINATION":97.9126,"RA_OF_ASC_NODE":325.1218,"ARG_OF_PERICENTER":191.8585,"MEAN_ANOMALY":168.2547,"EPHEMERIS_TYPE":0,"NORAD_CAT_ID":63301,"ELEMENT_SET_NO":999,"REV_AT_EPOCH":7209,"BSTAR":0.00015882998,"MEAN_MOTION_DOT":0.00000956,"MEAN_MOTION_DDOT":0},{"OBJECT_NAME":"KINEIS-4D","OBJECT_ID":"2025-056C","EPOCH":"2026-07-20T21:44:41.506944","CLASSIFICATION_TYPE":"U","MEAN_MOTION":14.72213464,"ECCENTRICITY":0.00019312,"INCLINATION":97.9048,"RA_OF_ASC_NODE":325.0923,"ARG_OF_PERICENTER":193.0633,"MEAN_ANOMALY":167.0525,"EPHEMERIS_TYPE":0,"NORAD_CAT_ID":63302,"ELEMENT_SET_NO":999,"REV_AT_EPOCH":7209,"BSTAR":0.00016019838,"MEAN_MOTION_DOT":0.00000962,"MEAN_MOTION_DDOT":0},{"OBJECT_NAME":"KINEIS-4A","OBJECT_ID":"2025-056D","EPOCH":"2026-07-20T22:35:28.311360","CLASSIFICATION_TYPE":"U","MEAN_MOTION":14.72294087,"ECCENTRICITY":0.00024497,"INCLINATION":97.9142,"RA_OF_ASC_NODE":325.0847,"ARG_OF_PERICENTER":142.3558,"MEAN_ANOMALY":217.7821,"EPHEMERIS_TYPE":0,"NORAD_CAT_ID":63303,"ELEMENT_SET_NO":999,"REV_AT_EPOCH":7209,"BSTAR":0.00015555754,"MEAN_MOTION_DOT":0.00000935,"MEAN_MOTION_DDOT":0},{"OBJECT_NAME":"KINEIS-4B","OBJECT_ID":"2025-056E","EPOCH":"2026-07-20T20:32:35.894400","CLASSIFICATION_TYPE":"U","MEAN_MOTION":14.72281092,"ECCENTRICITY":0.00058242,"INCLINATION":97.9154,"RA_OF_ASC_NODE":325.0606,"ARG_OF_PERICENTER":175.4049,"MEAN_ANOMALY":184.7213,"EPHEMERIS_TYPE":0,"NORAD_CAT_ID":63304,"ELEMENT_SET_NO":999,"REV_AT_EPOCH":7207,"BSTAR":0.000053609328,"MEAN_MOTION_DOT":0.0000029,"MEAN_MOTION_DDOT":0}]}
